STARLINK-31064          
1 58631U 23203P   26068.07774079 -.00001956  00000+0 -61590-4 0  9993
2 58631  43.0091  74.3436 0001504 279.6227  80.4455 15.27563758124590
ION SCV-017             
1 63230U 25052W   26068.71648816  .00006457  00000+0  24539-3 0  9998
2 63230  97.4016 324.7516 0023746  44.9875 315.3282 15.26881798 54851
